[{"OBJECT_NAME":"STARLINK-36771","OBJECT_ID":"2026-036AA","EPOCH":"2026-03-05T04:00:01.999584","MEAN_MOTION":15.82006397,"ECCENTRICITY":0.0002185,"INCLINATION":42.9941,"RA_OF_ASC_NODE":277.2812,"ARG_OF_PERICENTER":269.4237,"MEAN_ANOMALY":191.3196,"EPHEMERIS_TYPE":0,"CLASSIFICATION_TYPE":"U","NORAD_CAT_ID":67928,"ELEMENT_SET_NO":999,"REV_AT_EPOCH":292,"BSTAR":0.00018156,"MEAN_MOTION_DOT":0.0003785,"MEAN_MOTION_DDOT":0},{"OBJECT_NAME":"STARLINK-36809","OBJECT_ID":"2026-036AB","EPOCH":"2026-03-05T04:00:01.999584","MEAN_MOTION":15.82036033,"ECCENTRICITY":0.0001884,"INCLINATION":42.9938,"RA_OF_ASC_NODE":277.2598,"ARG_OF_PERICENTER":272.083,"MEAN_ANOMALY":197.2055,"EPHEMERIS_TYPE":0,"CLASSIFICATION_TYPE":"U","NORAD_CAT_ID":67929,"ELEMENT_SET_NO":999,"REV_AT_EPOCH":292,"BSTAR":-0.00010238,"MEAN_MOTION_DOT":-0.00022057,"MEAN_MOTION_DDOT":0},{"OBJECT_NAME":"STARLINK-36865","OBJECT_ID":"2026-036AC","EPOCH":"2026-03-05T04:00:01.999584","MEAN_MOTION":15.82019878,"ECCENTRICITY":0.0002199,"INCLINATION":42.9941,"RA_OF_ASC_NODE":277.2384,"ARG_OF_PERICENTER":278.6299,"MEAN_ANOMALY":199.2037,"EPHEMERIS_TYPE":0,"CLASSIFICATION_TYPE":"U","NORAD_CAT_ID":67930,"ELEMENT_SET_NO":999,"REV_AT_EPOCH":292,"BSTAR":-4.0887e-6,"MEAN_MOTION_DOT":-1.395e-5,"MEAN_MOTION_DDOT":0},{"OBJECT_NAME":"STARLINK-36781","OBJECT_ID":"2026-036AD","EPOCH":"2026-03-05T04:00:01.999584","MEAN_MOTION":15.82013097,"ECCENTRICITY":0.0001698,"INCLINATION":42.9938,"RA_OF_ASC_NODE":277.2494,"ARG_OF_PERICENTER":273.9287,"MEAN_ANOMALY":199.634,"EPHEMERIS_TYPE":0,"CLASSIFICATION_TYPE":"U","NORAD_CAT_ID":67931,"ELEMENT_SET_NO":999,"REV_AT_EPOCH":292,"BSTAR":9.6704e-5,"MEAN_MOTION_DOT":0.00019874,"MEAN_MOTION_DDOT":0},{"OBJECT_NAME":"STARLINK-36301","OBJECT_ID":"2026-037A","EPOCH":"2026-03-05T04:00:01.999584","MEAN_MOTION":15.93190887,"ECCENTRICITY":0.0001641,"INCLINATION":42.9999,"RA_OF_ASC_NODE":226.4812,"ARG_OF_PERICENTER":272.567,"MEAN_ANOMALY":53.8339,"EPHEMERIS_TYPE":0,"CLASSIFICATION_TYPE":"U","NORAD_CAT_ID":67932,"ELEMENT_SET_NO":999,"REV_AT_EPOCH":238,"BSTAR":-0.0043708,"MEAN_MOTION_DOT":-0.01594007,"MEAN_MOTION_DDOT":0.00071786},{"OBJECT_NAME":"STARLINK-36852","OBJECT_ID":"2026-037B","EPOCH":"2026-03-05T04:00:01.999584","MEAN_MOTION":15.93331548,"ECCENTRICITY":0.0001429,"INCLINATION":43.0002,"RA_OF_ASC_NODE":226.4759,"ARG_OF_PERICENTER":271.0605,"MEAN_ANOMALY":57.3856,"EPHEMERIS_TYPE":0,"CLASSIFICATION_TYPE":"U","NORAD_CAT_ID":67933,"ELEMENT_SET_NO":999,"REV_AT_EPOCH":247,"BSTAR":-0.0043218,"MEAN_MOTION_DOT":-0.01587908,"MEAN_MOTION_DDOT":0.0007138},{"OBJECT_NAME":"STARLINK-36861","OBJECT_ID":"2026-037C","EPOCH":"2026-03-05T04:00:01.999584","MEAN_MOTION":15.93454701,"ECCENTRICITY":0.0001539,"INCLINATION":43,"RA_OF_ASC_NODE":226.4693,"ARG_OF_PERICENTER":272.5822,"MEAN_ANOMALY":58.5821,"EPHEMERIS_TYPE":0,"CLASSIFICATION_TYPE":"U","NORAD_CAT_ID":67934,"ELEMENT_SET_NO":999,"REV_AT_EPOCH":247,"BSTAR":-0.0042698,"MEAN_MOTION_DOT":-0.01579178,"MEAN_MOTION_DDOT":0.00070745},{"OBJECT_NAME":"STARLINK-36860","OBJECT_ID":"2026-037D","EPOCH":"2026-03-05T04:00:01.999584","MEAN_MOTION":15.93579751,"ECCENTRICITY":0.0001739,"INCLINATION":43,"RA_OF_ASC_NODE":226.4624,"ARG_OF_PERICENTER":274.4449,"MEAN_ANOMALY":59.5314,"EPHEMERIS_TYPE":0,"CLASSIFICATION_TYPE":"U","NORAD_CAT_ID":67935,"ELEMENT_SET_NO":999,"REV_AT_EPOCH":247,"BSTAR":-0.0042424,"MEAN_MOTION_DOT":-0.01579532,"MEAN_MOTION_DDOT":0.00070862},{"OBJECT_NAME":"STARLINK-36848","OBJECT_ID":"2026-037E","EPOCH":"2026-03-05T04:00:01.999584","MEAN_MOTION":15.93844682,"ECCENTRICITY":0.0001535,"INCLINATION":43,"RA_OF_ASC_NODE":226.4485,"ARG_OF_PERICENTER":272.1637,"MEAN_ANOMALY":67.1369,"EPHEMERIS_TYPE":0,"CLASSIFICATION_TYPE":"U","NORAD_CAT_ID":67936,"ELEMENT_SET_NO":999,"REV_AT_EPOCH":247,"BSTAR":-0.0042148,"MEAN_MOTION_DOT":-0.01591287,"MEAN_MOTION_DDOT":0.00072025},{"OBJECT_NAME":"STARLINK-36370","OBJECT_ID":"2026-037F","EPOCH":"2026-03-05T04:00:01.999584","MEAN_MOTION":15.9370821,"ECCENTRICITY":0.000176,"INCLINATION":43.0003,"RA_OF_ASC_NODE":226.4555,"ARG_OF_PERICENTER":270.4074,"MEAN_ANOMALY":66.4256,"EPHEMERIS_TYPE":0,"CLASSIFICATION_TYPE":"U","NORAD_CAT_ID":67937,"ELEMENT_SET_NO":999,"REV_AT_EPOCH":247,"BSTAR":-0.0042206,"MEAN_MOTION_DOT":-0.01582157,"MEAN_MOTION_DDOT":0.0007117},{"OBJECT_NAME":"STARLINK-36371","OBJECT_ID":"2026-037G","EPOCH":"2026-03-05T04:00:01.999584","MEAN_MOTION":15.93974121,"ECCENTRICITY":0.0001535,"INCLINATION":43,"RA_OF_ASC_NODE":226.4425,"ARG_OF_PERICENTER":272.938,"MEAN_ANOMALY":68.6243,"EPHEMERIS_TYPE":0,"CLASSIFICATION_TYPE":"U","NORAD_CAT_ID":67938,"ELEMENT_SET_NO":999,"REV_AT_EPOCH":247,"BSTAR":-0.0041724,"MEAN_MOTION_DOT":-0.01586224,"MEAN_MOTION_DDOT":0.00071696},{"OBJECT_NAME":"STARLINK-36246","OBJECT_ID":"2026-037H","EPOCH":"2026-03-05T04:00:01.999584","MEAN_MOTION":15.94108921,"ECCENTRICITY":0.0001746,"INCLINATION":43.0001,"RA_OF_ASC_NODE":226.4374,"ARG_OF_PERICENTER":272.8705,"MEAN_ANOMALY":70.9332,"EPHEMERIS_TYPE":0,"CLASSIFICATION_TYPE":"U","NORAD_CAT_ID":67939,"ELEMENT_SET_NO":999,"REV_AT_EPOCH":238,"BSTAR":-0.0041434,"MEAN_MOTION_DOT":-0.01586626,"MEAN_MOTION_DDOT":0.00071826},{"OBJECT_NAME":"STARLINK-36907","OBJECT_ID":"2026-037J","EPOCH":"2026-03-05T04:00:01.999584","MEAN_MOTION":15.94492868,"ECCENTRICITY":0.0001561,"INCLINATION":43,"RA_OF_ASC_NODE":226.4175,"ARG_OF_PERICENTER":270.0601,"MEAN_ANOMALY":81.193,"EPHEMERIS_TYPE":0,"CLASSIFICATION_TYPE":"U","NORAD_CAT_ID":67940,"ELEMENT_SET_NO":999,"REV_AT_EPOCH":247,"BSTAR":-0.0040553,"MEAN_MOTION_DOT":-0.01585037,"MEAN_MOTION_DDOT":0.00071969},{"OBJECT_NAME":"STARLINK-36927","OBJECT_ID":"2026-037K","EPOCH":"2026-03-05T04:00:01.999584","MEAN_MOTION":15.94747556,"ECCENTRICITY":0.0001629,"INCLINATION":43,"RA_OF_ASC_NODE":226.4058,"ARG_OF_PERICENTER":269.5663,"MEAN_ANOMALY":86.3918,"EPHEMERIS_TYPE":0,"CLASSIFICATION_TYPE":"U","NORAD_CAT_ID":67941,"ELEMENT_SET_NO":999,"REV_AT_EPOCH":247,"BSTAR":-0.0039928,"MEAN_MOTION_DOT":-0.01582175,"MEAN_MOTION_DDOT":0.00071914},{"OBJECT_NAME":"STARLINK-36914","OBJECT_ID":"2026-037L","EPOCH":"2026-03-05T04:00:01.999584","MEAN_MOTION":15.94235151,"ECCENTRICITY":0.0001437,"INCLINATION":43.0001,"RA_OF_ASC_NODE":226.4295,"ARG_OF_PERICENTER":272.0285,"MEAN_ANOMALY":74.7312,"EPHEMERIS_TYPE":0,"CLASSIFICATION_TYPE":"U","NORAD_CAT_ID":67942,"ELEMENT_SET_NO":999,"REV_AT_EPOCH":247,"BSTAR":-0.0041398,"MEAN_MOTION_DOT":-0.01595749,"MEAN_MOTION_DDOT":0.00072679},{"OBJECT_NAME":"STARLINK-36851","OBJECT_ID":"2026-037M","EPOCH":"2026-03-05T04:00:01.999584","MEAN_MOTION":15.94364926,"ECCENTRICITY":0.0001666,"INCLINATION":43,"RA_OF_ASC_NODE":226.4237,"ARG_OF_PERICENTER":274.0428,"MEAN_ANOMALY":74.9883,"EPHEMERIS_TYPE":0,"CLASSIFICATION_TYPE":"U","NORAD_CAT_ID":67943,"ELEMENT_SET_NO":999,"REV_AT_EPOCH":247,"BSTAR":-0.0040967,"MEAN_MOTION_DOT":-0.01590275,"MEAN_MOTION_DDOT":0.00072315}]
