STARLINK-36771          
1 67928U 26036AA  26064.16668981  .00037850  00000+0  18156-3 0  9998
2 67928  42.9941 277.2812 0002185 269.4237 191.3196 15.82006397  2925
STARLINK-36809          
1 67929U 26036AB  26064.16668981 -.00022057  00000+0 -10238-3 0  9997
2 67929  42.9938 277.2598 0001884 272.0830 197.2055 15.82036033  2926
STARLINK-36865          
1 67930U 26036AC  26064.16668981 -.00001395  00000+0 -40887-5 0  9996
2 67930  42.9941 277.2384 0002199 278.6299 199.2037 15.82019878  2926
STARLINK-36781          
1 67931U 26036AD  26064.16668981  .00019874  00000+0  96704-4 0  9994
2 67931  42.9938 277.2494 0001698 273.9287 199.6340 15.82013097  2921
STARLINK-36301          
1 67932U 26037A   26064.16668981 -.01594007  71786-3 -43708-2 0  9992
2 67932  42.9999 226.4812 0001641 272.5670  53.8339 15.93190887  2382
STARLINK-36852          
1 67933U 26037B   26064.16668981 -.01587908  71380-3 -43218-2 0  9991
2 67933  43.0002 226.4759 0001429 271.0605  57.3856 15.93331548  2470
STARLINK-36861          
1 67934U 26037C   26064.16668981 -.01579178  70745-3 -42698-2 0  9997
2 67934  43.0000 226.4693 0001539 272.5822  58.5821 15.93454701  2477
STARLINK-36860          
1 67935U 26037D   26064.16668981 -.01579532  70862-3 -42424-2 0  9999
2 67935  43.0000 226.4624 0001739 274.4449  59.5314 15.93579751  2471
STARLINK-36848          
1 67936U 26037E   26064.16668981 -.01591287  72025-3 -42148-2 0  9997
2 67936  43.0000 226.4485 0001535 272.1637  67.1369 15.93844682  2478
STARLINK-36370          
1 67937U 26037F   26064.16668981 -.01582157  71170-3 -42206-2 0  9999
2 67937  43.0003 226.4555 0001760 270.4074  66.4256 15.93708210  2479
STARLINK-36371          
1 67938U 26037G   26064.16668981 -.01586224  71696-3 -41724-2 0  9996
2 67938  43.0000 226.4425 0001535 272.9380  68.6243 15.93974121  2476
STARLINK-36246          
1 67939U 26037H   26064.16668981 -.01586626  71826-3 -41434-2 0  9996
2 67939  43.0001 226.4374 0001746 272.8705  70.9332 15.94108921  2388
STARLINK-36907          
1 67940U 26037J   26064.16668981 -.01585037  71969-3 -40553-2 0  9992
2 67940  43.0000 226.4175 0001561 270.0601  81.1930 15.94492868  2472
STARLINK-36927          
1 67941U 26037K   26064.16668981 -.01582175  71914-3 -39928-2 0  9997
2 67941  43.0000 226.4058 0001629 269.5663  86.3918 15.94747556  2479
STARLINK-36914          
1 67942U 26037L   26064.16668981 -.01595749  72679-3 -41398-2 0  9992
2 67942  43.0001 226.4295 0001437 272.0285  74.7312 15.94235151  2472
STARLINK-36851          
1 67943U 26037M   26064.16668981 -.01590275  72315-3 -40967-2 0  9990
2 67943  43.0000 226.4237 0001666 274.0428  74.9883 15.94364926  2471
